NORAD_CAT_ID,OBJECT_NAME,OBJECT_TYPE,EPOCH,MEAN_MOTION,ECCENTRICITY,INCLINATION,RA_OF_ASC_NODE,ARG_OF_PERICENTER,MEAN_ANOMALY,BSTAR,MEAN_MOTION_DOT,MEAN_MOTION_DDOT,TLE_LINE0,TLE_LINE1,TLE_LINE2,SEMIMAJOR_AXIS,PERIOD,APOGEE,PERIGEE,DECAYED
53577.0,STARLINK-4553,PAYLOAD,2023-11-30 19:12:53,15.0884415,0.000142,53.2158,179.3841,92.3786,267.7369,0.00011768,1.586e-05,0.0,0 STARLINK-4553,1 53577U 22101BC  23334.80061951  .00001586  00000-0  11768-3 0  9994,2 53577  53.2158 179.3841 0001420  92.3786 267.7369 15.08844150 71169,6917.868,95.437,540.715,538.75,0.0
53577.0,STARLINK-4553,PAYLOAD,2023-12-01 19:03:40,15.08840029,0.0001736,53.2152,174.9238,111.4579,248.6598,0.0001309,1.796e-05,0.0,0 STARLINK-4553,1 53577U 22101BC  23335.79422053  .00001796  00000-0  13090-3 0  9990,2 53577  53.2152 174.9238 0001736 111.4579 248.6598 15.08840029 71317,6917.88,95.438,540.946,538.544,0.0
53577.0,STARLINK-4553,PAYLOAD,2023-12-01 23:49:50,15.08833556,0.0001466,53.2149,174.0334,94.8409,265.2751,0.00042886,6.543e-05,0.0,0 STARLINK-4553,1 53577U 22101BC  23335.99294607  .00006543  00000-0  42886-3 0  9994,2 53577  53.2149 174.0334 0001466  94.8409 265.2751 15.08833556 72164,6917.9,95.438,540.779,538.751,0.0
53577.0,STARLINK-4553,PAYLOAD,2023-12-02 20:29:51,15.08819489,0.0001475,53.2149,170.1664,96.818,263.2979,0.00066592,0.0001032,0.0,0 STARLINK-4553,1 53577U 22101BC  23336.85407168  .00010320  00000-0  66592-3 0  9996,2 53577  53.2149 170.1664 0001475  96.8180 263.2979 15.08819489 72298,6917.943,95.439,540.828,538.788,0.0
53577.0,STARLINK-4553,PAYLOAD,2023-12-03 21:56:02,15.08832837,0.000137,53.2158,165.4089,86.7392,273.3756,5.6616e-06,-1.98e-06,0.0,0 STARLINK-4553,1 53577U 22101BC  23337.91391294 -.00000198  00000-0  56616-5 0  9997,2 53577  53.2158 165.4089 0001370  86.7392 273.3756 15.08832837 71637,6917.902,95.438,540.715,538.82,0.0
53577.0,STARLINK-4553,PAYLOAD,2023-12-05 23:12:58,15.08840636,0.0001359,53.2151,156.192,91.4703,268.6444,0.00012597,1.717e-05,0.0,0 STARLINK-4553,1 53577U 22101BC  23339.96734835  .00001717  00000-0  12597-3 0  9991,2 53577  53.2151 156.1920 0001359  91.4703 268.6444 15.08840636 71948,6917.878,95.438,540.684,538.803,0.0
53577.0,STARLINK-4553,PAYLOAD,2023-12-06 13:31:26,15.08843982,0.0001292,53.2152,153.5163,92.6571,267.4569,7.564e-05,9.16e-06,0.0,0 STARLINK-4553,1 53577U 22101BC  23340.56350571  .00000916  00000-0  75640-4 0  9999,2 53577  53.2152 153.5163 0001292  92.6571 267.4569 15.08843982 72854,6917.868,95.437,540.627,538.839,0.0
53577.0,STARLINK-4553,PAYLOAD,2023-12-06 21:28:22,15.08846278,0.0001324,53.2152,152.029,95.5794,264.5349,8.6794e-05,1.094e-05,0.0,0 STARLINK-4553,1 53577U 22101BC  23340.89470285  .00001094  00000-0  86794-4 0  9990,2 53577  53.2152 152.0290 0001324  95.5794 264.5349 15.08846278 72905,6917.861,95.437,540.642,538.81,0.0
53577.0,STARLINK-4553,PAYLOAD,2023-12-07 11:46:51,15.08836812,0.0001321,53.2152,149.3528,94.1506,265.9638,-4.9204e-06,-3.66e-06,0.0,0 STARLINK-4553,1 53577U 22101BC  23341.49087018 -.00000366  00000-0 -49204-5 0  9994,2 53577  53.2152 149.3528 0001321  94.1506 265.9638 15.08836812 72179,6917.89,95.438,540.669,538.841,0.0
53577.0,STARLINK-4553,PAYLOAD,2023-12-07 13:22:14,15.08837423,0.0001322,53.2152,149.0554,94.0078,266.1065,-1.4525e-06,-3.11e-06,0.0,0 STARLINK-4553,1 53577U 22101BC  23341.55710966 -.00000311  00000-0 -14525-5 0  9994,2 53577  53.2152 149.0554 0001322  94.0078 266.1065 15.08837423 73008,6917.888,95.438,540.668,538.839,0.0
53577.0,STARLINK-4553,PAYLOAD,2023-12-08 11:37:38,15.08834287,0.0001307,53.2153,144.8922,95.2738,264.8403,-3.6604e-05,-8.7e-06,0.0,0 STARLINK-4553,1 53577U 22101BC  23342.48447250 -.00000870  00000-0 -36604-4 0  9991,2 53577  53.2153 144.8922 0001307  95.2738 264.8403 15.08834287 73141,6917.898,95.438,540.667,538.859,0.0
53577.0,STARLINK-4553,PAYLOAD,2023-12-08 19:34:33,15.08837797,0.0001309,53.2154,143.4054,94.3757,265.7385,-1.9599e-05,-6e-06,0.0,0 STARLINK-4553,1 53577U 22101BC  23342.81567023 -.00000600  00000-0 -19599-4 0  9994,2 53577  53.2154 143.4054 0001309  94.3757 265.7385 15.08837797 72378,6917.887,95.438,540.658,538.847,0.0
53577.0,STARLINK-4553,PAYLOAD,2023-12-08 21:09:57,15.08837781,0.0001309,53.2154,143.108,94.1855,265.9287,-2.3611e-05,-6.64e-06,0.0,0 STARLINK-4553,1 53577U 22101BC  23342.88191036 -.00000664  00000-0 -23611-4 0  9998,2 53577  53.2154 143.1080 0001309  94.1855 265.9287 15.08837781 73200,6917.887,95.438,540.658,538.847,0.0
53577.0,STARLINK-4553,PAYLOAD,2023-12-09 13:03:48,15.0883659,0.0001279,53.2154,140.1343,94.6058,265.5081,3.8819e-05,3.3e-06,0.0,0 STARLINK-4553,1 53577U 22101BC  23343.54430985  .00000330  00000-0  38819-4 0  9995,2 53577  53.2154 140.1343 0001279  94.6058 265.5081 15.08836590 73301,6917.891,95.438,540.641,538.871,0.0
53577.0,STARLINK-4553,PAYLOAD,2023-12-10 14:29:58,15.08838343,0.0001203,53.2155,135.3768,91.7522,268.3608,5.1206e-05,5.27e-06,0.0,0 STARLINK-4553,1 53577U 22101BC  23344.60415012  .00000527  00000-0  51206-4 0  9990,2 53577  53.2155 135.3768 0001203  91.7522 268.3608 15.08838343 73461,6917.885,95.438,540.583,538.918,0.0
53577.0,STARLINK-4553,PAYLOAD,2023-12-10 17:40:44,15.08839643,0.0001169,53.2158,134.7821,90.4618,269.6508,5.8571e-05,6.44e-06,0.0,0 STARLINK-4553,1 53577U 22101BC  23344.73662921  .00000644  00000-0  58571-4 0  9999,2 53577  53.2158 134.7821 0001169  90.4618 269.6508 15.08839643 72668,6917.881,95.438,540.555,538.938,0.0
53577.0,STARLINK-4553,PAYLOAD,2023-12-11 14:20:45,15.08840534,0.0001266,53.2163,130.9164,76.9361,283.1773,3.224e-05,2.25e-06,0.0,0 STARLINK-4553,1 53577U 22101BC  23345.59775031  .00000225  00000-0  32240-4 0  9991,2 53577  53.2163 130.9164 0001266  76.9361 283.1773 15.08840534 73616,6917.879,95.438,540.62,538.868,0.0
53577.0,STARLINK-4553,PAYLOAD,2023-12-11 15:56:08,15.08840678,0.000126,53.2163,130.6192,76.5492,283.564,3.3067e-05,2.38e-06,0.0,0 STARLINK-4553,1 53577U 22101BC  23345.66399015  .00000238  00000-0  33067-4 0  9995,2 53577  53.2163 130.6192 0001260  76.5492 283.5640 15.08840678 73626,6917.878,95.438,540.615,538.872,0.0
53577.0,STARLINK-4553,PAYLOAD,2023-12-12 14:11:32,15.08841296,0.0001362,53.2171,126.4537,75.2323,284.882,2.4505e-05,1.02e-06,0.0,0 STARLINK-4553,1 53577U 22101BC  23346.59134942  .00000102  00000-0  24505-4 0  9991,2 53577  53.2171 126.4537 0001362  75.2323 284.8820 15.08841296 73769,6917.876,95.437,540.684,538.799,0.0
53577.0,STARLINK-4553,PAYLOAD,2023-12-12 15:46:55,15.08842024,0.000139,53.2172,126.1568,74.0917,286.0228,3.1396e-05,2.12e-06,0.0,0 STARLINK-4553,1 53577U 22101BC  23346.65758883  .00000212  00000-0  31396-4 0  9992,2 53577  53.2172 126.1568 0001390  74.0917 286.0228 15.08842024 72954,6917.874,95.437,540.701,538.778,0.0
53577.0,STARLINK-4553,PAYLOAD,2023-12-13 14:02:19,15.08842463,0.0001408,53.2172,121.9958,73.6299,286.4848,4.2352e-05,3.86e-06,0.0,0 STARLINK-4553,1 53577U 22101BC  23347.58494664  .00000386  00000-0  42352-4 0  9995,2 53577  53.2172 121.9958 0001408  73.6299 286.4848 15.08842463 73914,6917.873,95.437,540.712,538.764,0.0
53577.0,STARLINK-4553,PAYLOAD,2023-12-13 15:37:42,15.08842657,0.0001458,53.2172,121.6993,69.6719,290.4429,4.4141e-05,4.15e-06,0.0,0 STARLINK-4553,1 53577U 22101BC  23347.65118669  .00000415  00000-0  44141-4 0  9992,2 53577  53.2172 121.6993 0001458  69.6719 290.4429 15.08842657 73923,6917.872,95.437,540.746,538.729,0.0
53577.0,STARLINK-4553,PAYLOAD,2023-12-14 12:17:43,15.08837879,0.0001381,53.2176,117.8424,101.6008,258.5139,-2.2738e-05,-6.5e-06,0.0,0 STARLINK-4553,1 53577U 22101BC  23348.51231162 -.00000650  00000-0 -22738-4 0  9993,2 53577  53.2176 117.8424 0001381 101.6008 258.5139 15.08837879 73233,6917.887,95.438,540.707,538.797,0.0
53577.0,STARLINK-4553,PAYLOAD,2023-12-14 13:53:06,15.08836899,0.0001313,53.2165,117.5342,71.8625,288.251,-2.8419e-05,-7.4e-06,0.0,0 STARLINK-4553,1 53577U 22101BC  23348.57855236 -.00000740  00000-0 -28419-4 0  9995,2 53577  53.2165 117.5342 0001313  71.8625 288.2510 15.08836899 74061,6917.89,95.438,540.663,538.847,0.0
53577.0,STARLINK-4553,PAYLOAD,2023-12-14 15:28:29,15.08838047,0.000133,53.2163,117.2371,72.5521,287.5617,-1.7057e-05,-5.59e-06,0.0,0 STARLINK-4553,1 53577U 22101BC  23348.64479133 -.00000559  00000-0 -17057-4 0  9995,2 53577  53.2163 117.2371 0001330  72.5521 287.5617 15.08838047 74078,6917.886,95.438,540.671,538.831,0.0
53577.0,STARLINK-4553,PAYLOAD,2023-12-15 13:43:54,15.08832395,0.000136,53.2163,113.0742,76.6817,283.4326,-1.5805e-05,-5.39e-06,0.0,0 STARLINK-4553,1 53577U 22101BC  23349.57215715 -.00000539  00000-0 -15805-4 0  9999,2 53577  53.2163 113.0742 0001360  76.6817 283.4326 15.08832395 74218,6917.904,95.438,540.709,538.828,0.0
53577.0,STARLINK-4553,PAYLOAD,2023-12-15 15:19:17,15.08833455,0.0001363,53.2162,112.7769,78.3913,281.7232,-6.5265e-06,-3.92e-06,0.0,0 STARLINK-4553,1 53577U 22101BC  23349.63839638 -.00000392  00000-0 -65265-5 0  9995,2 53577  53.2162 112.7769 0001363  78.3913 281.7232 15.08833455 73406,6917.9,95.438,540.708,538.822,0.0
53577.0,STARLINK-4553,PAYLOAD,2023-12-16 11:59:17,15.08838571,0.000132,53.2168,108.9098,85.2851,274.8292,8.3315e-05,1.038e-05,0.0,0 STARLINK-4553,1 53577U 22101BC  23350.49951190  .00001038  00000-0  83315-4 0  9990,2 53577  53.2168 108.9098 0001320  85.2851 274.8292 15.08838571 73532,6917.885,95.438,540.663,538.837,0.0
53577.0,STARLINK-4553,PAYLOAD,2023-12-16 13:34:40,15.08841271,0.0001338,53.2163,108.6135,81.7011,278.4133,0.00010626,1.404e-05,0.0,0 STARLINK-4553,1 53577U 22101BC  23350.56575003  .00001404  00000-0  10626-3 0  9994,2 53577  53.2163 108.6135 0001338  81.7011 278.4133 15.08841271 74361,6917.877,95.437,540.667,538.816,0.0
53577.0,STARLINK-4553,PAYLOAD,2023-12-17 11:50:05,15.08835778,0.0001323,53.216,104.4519,82.7016,277.4126,3.1981e-05,2.21e-06,0.0,0 STARLINK-4553,1 53577U 22101BC  23351.49311816  .00000221  00000-0  31981-4 0  9991,2 53577  53.2160 104.4519 0001323  82.7016 277.4126 15.08835778 73688,6917.893,95.438,540.674,538.843,0.0
